SARSAT 7 (NOAA 15)      
1 25338U 98030A   19085.56261004  .00000010  00000-0  23106-4 0  9995
2 25338  98.7545 106.9493 0011436 124.6692 235.5567 14.25899306 85269
METEOSAT-8 (MSG-1)      
1 27509U 02040B   19085.54435503  .00000121  00000-0  00000+0 0  9994
2 27509   5.9500  55.9019 0002737  12.1431 353.1251  1.00267171 60780
GPS BIIR-08             
1 27663U 03005A   19085.06457115 -.00000066  00000-0  00000+0 0  9996
2 27663  56.3734 319.6223 0106673  30.8094 281.1075  2.00578860118355
GPS BIIR-11             
1 28190U 04009A   19084.79907753 -.00000093  00000-0  00000+0 0  9994
2 28190  56.2542  20.4173 0092536  77.7957 197.7624  2.00569348110027
GPS BIIR-12             
1 28361U 04023A   19084.77922958 -.00000008  00000-0  00000+0 0  9998
2 28361  54.0498 193.6653 0131574 229.8457 303.9901  2.00569789108104
GPS BIIR-13             
1 28474U 04045A   19085.04788308 -.00000035  00000-0  00000+0 0  9997
2 28474  54.6622  71.1674 0191456 259.4080 111.9138  2.00563308105470
SARSAT 10 (NOAA 18)     
1 28654U 05018A   19085.54962292  .00000057  00000-0  56082-4 0  9998
2 28654  99.1076 131.2127 0015013  57.4059 302.8559 14.12411521713641
GPS BIIR-14M            
1 28874U 05038A   19085.27016112 -.00000097  00000-0  00000+0 0  9994
2 28874  56.3813  17.7418 0131452 261.8881  16.3390  2.00559216 98880
METEOSAT-9 (MSG-2)      
1 28912U 05049B   19085.32135694 -.00000001  00000-0  00000+0 0  9997
2 28912   3.4937  71.3945 0001571 349.8358 241.1745  1.00274099 48607
GOES 13                 
1 29155U 06018A   19085.41817556 -.00000305  00000-0  00000+0 0  9995
2 29155   0.3935 283.3138 0012409 138.5003 212.4609  1.00271716 47042
SARSAT 11 (METOP-A)     
1 29499U 06044A   19085.51599389 -.00000019  00000-0  10968-4 0  9998
2 29499  98.5856 141.0517 0002106 103.0322  36.1320 14.21544981645105
GPS BIIR-16M            
1 29601U 06052A   19084.44279527 -.00000065  00000-0  00000+0 0  9994
2 29601  56.3530 318.5631 0073898  59.4473 301.3222  2.00563585 90495
GPS BIIR-17M            
1 32260U 07047A   19082.75976727  .00000001  00000-0  00000+0 0  9991
2 32260  53.1728 189.5145 0110890  43.1664 317.7030  2.00564964 83836
GPS BIIR-18M            
1 32384U 07062A   19084.38849186 -.00000094  00000-0  00000+0 0  9997
2 32384  56.4632  18.4088 0006174  90.3008 144.4017  2.00551856 82604
SARSAT 12 (NOAA 19)     
1 33591U 09005A   19085.52754840  .00000048  00000-0  51435-4 0  9997
2 33591  99.1757  74.6349 0012993 253.5970 106.3773 14.12340788522025
GOES 14                 
1 35491U 09033A   19085.49030833 -.00000114  00000-0  00000+0 0  9996
2 35491   0.0998 105.8458 0007542 133.9453  15.9809  1.00271706 35685
GOES 15                 
1 36411U 10008A   19085.51050749  .00000033  00000-0  00000+0 0  9993
2 36411   0.0344 102.0758 0001008 176.6624 320.4574  1.00277368 33209
GLONASS-K 1             
1 37372U 11009A   19085.04367243 -.00000042  00000-0  00000+0 0  9991
2 37372  65.7044  42.8253 0009231 243.4420 209.1148  2.13107503 62834
GPS BIIF-2              
1 37753U 11036A   19085.14537712 -.00000027  00000-0  00000+0 0  9998
2 37753  55.8594  75.0273 0084130  37.9653 166.8766  2.00565812 56310
GSAT0101 (GALILEO-PFM)  
1 37846U 11060A   19085.21579650 -.00000053  00000-0  00000+0 0  9992
2 37846  56.3220  53.6799 0005259 327.8201  32.1231  1.70475759 46244
GSAT0102 (GALILEO-FM2)  
1 37847U 11060B   19084.83768126 -.00000054  00000-0  00000+0 0  9999
2 37847  56.3226  53.6894 0006648 312.6300 221.2832  1.70475695 46238
LUCH 5A                 
1 37951U 11074B   19085.23502851 -.00000076  00000-0  00000+0 0  9990
2 37951   2.3236 132.3833 0004076 232.5209  68.8471  1.00271406 26717
METEOSAT-10 (MSG-3)     
1 38552U 12035B   19085.40396550  .00000043  00000-0  00000+0 0  9995
2 38552   0.9955  13.8094 0001433  51.8950 272.7087  1.00279437 24740
SARSAT 13 (METOP-B)     
1 38771U 12049A   19085.48178543 -.00000015  00000-0  13040-4 0  9994
2 38771  98.7137 145.9449 0001356 146.6687 281.6987 14.21483757338234
GPS BIIF-3              
1 38833U 12053A   19085.34563069  .00000017  00000-0  00000+0 0  9992
2 38833  53.8106 251.8487 0081305  33.2767 327.2000  2.00557374 47389
GSAT0103 (GALILEO-FM3)  
1 38857U 12055A   19085.25784713 -.00000021  00000-0  00000+0 0  9997
2 38857  54.9236 174.1555 0003650 255.3169 104.6783  1.70473736 40152
GSAT0104 (GALILEO-FM4)  
1 38858U 12055B   19084.60551668 -.00000017  00000-0  00000+0 0  9992
2 38858  54.9242 174.1727 0002487 259.6799 100.3288  1.70473665 40091
GPS BIIF-4              
1 39166U 13023A   19084.21018472 -.00000096  00000-0  00000+0 0  9996
2 39166  56.0664  14.5869 0068029  24.0661 336.2526  2.00568188 42901
INSAT-3D                
1 39216U 13038B   19085.52479914 -.00000177  00000-0  00000+0 0  9995
2 39216   0.0175 213.6099 0001435 186.5129  54.5449  1.00272276 20832
GPS BIIF-5              
1 39533U 14008A   19085.20283052  .00000015  00000-0  00000+0 0  9996
2 39533  53.9446 257.2402 0038309 190.6737 169.2182  2.00570584 37284
LUCH 5V                 
1 39727U 14023A   19085.56368877 -.00000290  00000-0  00000+0 0  9992
2 39727   1.3894 302.3158 0003808  90.5366  88.5106  1.00272510536050
GPS BIIF-6              
1 39741U 14026A   19084.99110441 -.00000028  00000-0  00000+0 0  9998
2 39741  55.8399  74.5589 0018289 291.3880  68.4180  2.00578102 35563
GPS BIIF-7              
1 40105U 14045A   19084.58013349 -.00000005  00000-0  00000+0 0  9994
2 40105  54.5761 193.9315 0011429 101.7906 258.3410  2.00558867 34003
GSAT0201 (GALILEO 5)    
1 40128U 14050A   19084.33057002 -.00000111  00000-0  00000+0 0  9990
2 40128  50.5554  19.3457 1661930  84.7874 293.8333  1.85518615 31267
GSAT0202 (GALILEO 6)    
1 40129U 14050B   19084.59598882 -.00000112  00000-0  00000-0 0  9997
2 40129  50.6002  18.3554 1661304  85.6669 293.0077  1.85519209 31493
GPS BIIF-8              
1 40294U 14068A   19085.44289425 -.00000019  00000-0  00000+0 0  9999
2 40294  55.1510 134.7438 0018226  27.2514 332.9114  2.00577403 32240
GLONASS-K 2             
1 40315U 14075A   19085.76115606  .00000022  00000-0  00000+0 0  9998
2 40315  64.0846 282.5925 0014568 204.1997 184.9829  2.13098550 33619
GPS BIIF-9              
1 40534U 15013A   19083.59471088 -.00000060  00000-0  00000+0 0  9995
2 40534  54.5656 313.3869 0036904   4.6895 355.3854  2.00575050 29273
GSAT0203 (GALILEO 7)    
1 40544U 15017A   19084.40849436 -.00000054  00000-0  00000-0 0  9991
2 40544  56.1127  53.8994 0004900 276.3999  83.5182  1.70474935 24189
GSAT0204 (GALILEO 8)    
1 40545U 15017B   19084.77721879 -.00000054  00000-0  00000+0 0  9991
2 40545  56.1193  53.9030 0002387 273.5365  86.4108  1.70475202 24850
GPS BIIF-10             
1 40730U 15033A   19084.74632522 -.00000099  00000-0  00000+0 0  9997
2 40730  55.5924  13.9435 0044434 340.2627  19.5703  2.00559220 27058
METEOSAT-11 (MSG-4)     
1 40732U 15034A   19085.45882661 -.00000026  00000-0  00000+0 0  9990
2 40732   0.9073 222.2666 0000921 110.7533  15.3987  1.00270676 13573
GSAT0205 (GALILEO 9)    
1 40889U 15045A   19084.43438055 -.00000019  00000-0  00000+0 0  9998
2 40889  56.5128 294.4643 0004674  30.1034 329.9414  1.70474851 21992
GSAT0206 (GALILEO 10)   
1 40890U 15045B   19084.65408425 -.00000019  00000-0  00000+0 0  9992
2 40890  56.5116 294.4552 0002957  36.4254 323.6124  1.70474931 22028
GPS BIIF-11             
1 41019U 15062A   19084.79718181 -.00000016  00000-0  00000+0 0  9990
2 41019  55.1529 134.5823 0045379 206.9821 152.8494  2.00564700 24874
ELEKTRO-L 2             
1 41105U 15074A   19085.84908793 -.00000116  00000-0  00000+0 0  9997
2 41105   0.1661 124.0695 0002222 267.2118 174.3428  1.00270778 12058
GSAT0209 (GALILEO 12)   
1 41174U 15079A   19084.23866151 -.00000015  00000-0  00000+0 0  9999
2 41174  54.9373 173.8776 0004784 300.7445  59.2461  1.70473937 20331
GSAT0208 (GALILEO 11)   
1 41175U 15079B   19084.45849926 -.00000016  00000-0  00000+0 0  9996
2 41175  54.9353 173.8713 0003898 300.3052  59.6937  1.70474052 20348
GPS BIIF-12             
1 41328U 16007A   19084.89372438 -.00000008  00000-0  00000+0 0  9996
2 41328  54.8213 194.2861 0028943 216.1110 143.6966  2.00552345 22939
GSAT0211 (GALILEO 14)   
1 41549U 16030A   19084.58082209 -.00000018  00000-0  00000-0 0  9999
2 41549  56.6525 294.2677 0002419 350.5560   9.4571  1.70474611 17657
GSAT0210 (GALILEO 13)   
1 41550U 16030B   19084.87393754 -.00000017  00000-0  00000+0 0  9991
2 41550  56.6519 294.2613 0000774 313.8962  46.1148  1.70474741 17632
INSAT-3DR               
1 41752U 16054A   19085.58205369 -.00000098  00000-0  00000+0 0  9993
2 41752   0.0936  96.1001 0011853 186.7128 184.4112  1.00272887  9338
GSAT0207 (GALILEO 15)   
1 41859U 16069A   19083.94530528 -.00000014  00000-0  00000+0 0  9991
2 41859  54.5955 174.3616 0004561 287.7199  72.2671  1.70473914 14601
GSAT0212 (GALILEO 16)   
1 41860U 16069B   19084.97189908 -.00000020  00000-0  00000+0 0  9996
2 41860  54.5931 174.3326 0003540 307.4405  52.5630  1.70473897 14641
GSAT0213 (GALILEO 17)   
1 41861U 16069C   19084.75145657 -.00000019  00000-0  00000+0 0  9994
2 41861  54.5953 174.3417 0003772 264.6593  95.3337  1.70473969 14645
GSAT0214 (GALILEO 18)   
1 41862U 16069D   19084.89833785 -.00000020  00000-0  00000+0 0  9998
2 41862  54.5940 174.3335 0003019 269.6643  90.3369  1.70473988 14636
GOES 16                 
1 41866U 16071A   19085.52106303 -.00000269  00000-0  00000+0 0  9990
2 41866   0.0388 348.4666 0001017  76.7343 230.8314  1.00271510  8648
GSAT-17                 
1 42815U 17040B   19085.12385487 -.00000279  00000-0  00000+0 0  9991
2 42815   0.0244 133.1186 0004134 170.0356  18.2052  1.00273455  6392
GSAT0215 (GALILEO 19)   
1 43055U 17079A   19085.38606862 -.00000015  00000-0  00000+0 0  9999
2 43055  56.6265 294.0965 0000240  21.4204 338.5980  1.70473906  7980
GSAT0216 (GALILEO 20)   
1 43056U 17079B   19084.50596054 -.00000018  00000-0  00000-0 0  9998
2 43056  56.6276 294.1202 0001895 277.0646  82.9312  1.70473967  7980
GSAT0217 (GALILEO 21)   
1 43057U 17079C   19084.72595463 -.00000018  00000-0  00000+0 0  9995
2 43057  56.6258 294.1154 0001722 307.5393  52.4622  1.70473917  7974
GSAT0218 (GALILEO 22)   
1 43058U 17079D   19085.53248755 -.00000015  00000-0  00000+0 0  9992
2 43058  56.6255 294.0906 0002306 266.9990  92.9921  1.70473995  7984
GOES 17                 
1 43226U 18022A   19085.72406097  .00000077  00000-0  00000+0 0  9991
2 43226   0.0376  29.3952 0003408   0.3805 277.5332  1.00272383  3969
GSAT0221 (GALILEO 25)   
1 43564U 18060A   19083.67552682 -.00000055  00000-0  00000+0 0  9999
2 43564  56.5041  53.4280 0006114 286.2133  73.6914  1.70475871  4143
GSAT0222 (GALILEO 26)   
1 43565U 18060B   19084.48203223 -.00000054  00000-0  00000+0 0  9993
2 43565  56.5069  53.4045 0006065 292.8231  67.0863  1.70475915  4194
GSAT0219 (GALILEO 23)   
1 43566U 18060C   19085.28850778 -.00000053  00000-0  00000+0 0  9995
2 43566  56.5082  53.3839 0005613 290.3732  69.5418  1.70475783  4182
GSAT0220 (GALILEO 24)   
1 43567U 18060D   19084.33521025 -.00000054  00000-0  00000-0 0  9993
2 43567  56.5075  53.4096 0005768 290.0290  69.8821  1.70475799  4153
